{
 "type": "FeatureCollection",
 "name": "komsomolsky",
 "note": "Комсомольский микрорайон, Краснодар. OSM way/582275604 (place=quarter, wikidata Q48956008). © OpenStreetMap contributors, ODbL. Exported 2026-09-16 via Overpass API.",
 "features": [
  {
   "type": "Feature",
   "properties": {
    "name": "Комсомольский",
    "name:en": "Komsomolskiy",
    "place": "quarter",
    "osm": "way/582275604",
    "wikidata": "Q48956008",
    "source": "OpenStreetMap via Overpass API",
    "licence": "ODbL"
   },
   "geometry": {
    "type": "Polygon",
    "coordinates": [
     [
      [
       39.0867376,
       45.0410093
      ],
      [
       39.0873252,
       45.0381634
      ],
      [
       39.0874163,
       45.03752
      ],
      [
       39.0875708,
       45.03724
      ],
      [
       39.0876657,
       45.0372167
      ],
      [
       39.0879835,
       45.0358587
      ],
      [
       39.0881512,
       45.035147
      ],
      [
       39.088465,
       45.0337594
      ],
      [
       39.0887519,
       45.0324743
      ],
      [
       39.0889424,
       45.0315493
      ],
      [
       39.089224,
       45.0297181
      ],
      [
       39.0894869,
       45.0282983
      ],
      [
       39.0896673,
       45.0281405
      ],
      [
       39.0897886,
       45.0275334
      ],
      [
       39.0887901,
       45.0274393
      ],
      [
       39.0889954,
       45.0262584
      ],
      [
       39.0907183,
       45.0261458
      ],
      [
       39.0904502,
       45.0253053
      ],
      [
       39.0907048,
       45.0251104
      ],
      [
       39.0911241,
       45.0249644
      ],
      [
       39.0914834,
       45.0256399
      ],
      [
       39.096002,
       45.0275647
      ],
      [
       39.0972733,
       45.0283078
      ],
      [
       39.0985233,
       45.0304043
      ],
      [
       39.0993445,
       45.0307113
      ],
      [
       39.1001326,
       45.0313294
      ],
      [
       39.1022032,
       45.0328231
      ],
      [
       39.1029704,
       45.0337178
      ],
      [
       39.1037375,
       45.0359923
      ],
      [
       39.1046199,
       45.0367201
      ],
      [
       39.1050142,
       45.0364415
      ],
      [
       39.1052341,
       45.0366064
      ],
      [
       39.1054219,
       45.0367694
      ],
      [
       39.1057062,
       45.0370803
      ],
      [
       39.1059315,
       45.0372717
      ],
      [
       39.106476,
       45.0375863
      ],
      [
       39.1070393,
       45.03781
      ],
      [
       39.107679,
       45.0379957
      ],
      [
       39.1081846,
       45.0380621
      ],
      [
       39.1085923,
       45.0380659
      ],
      [
       39.1108963,
       45.0377342
      ],
      [
       39.1114327,
       45.0377038
      ],
      [
       39.1129857,
       45.0376261
      ],
      [
       39.1141042,
       45.0376602
      ],
      [
       39.1145414,
       45.0377209
      ],
      [
       39.1152361,
       45.0380488
      ],
      [
       39.1158007,
       45.0383786
      ],
      [
       39.1159281,
       45.0385169
      ],
      [
       39.1160059,
       45.0387216
      ],
      [
       39.1157632,
       45.0395688
      ],
      [
       39.11579,
       45.0396058
      ],
      [
       39.1157122,
       45.0398427
      ],
      [
       39.1156572,
       45.0398683
      ],
      [
       39.1149115,
       45.0420914
      ],
      [
       39.1156679,
       45.0425993
      ],
      [
       39.1156384,
       45.043727
      ],
      [
       39.1148069,
       45.0437251
      ],
      [
       39.1136885,
       45.043636
      ],
      [
       39.1129979,
       45.0435727
      ],
      [
       39.1097456,
       45.0432589
      ],
      [
       39.108875,
       45.0431757
      ],
      [
       39.1073263,
       45.0430277
      ],
      [
       39.1050142,
       45.0427794
      ],
      [
       39.104353,
       45.0426685
      ],
      [
       39.10302,
       45.0423549
      ],
      [
       39.1017017,
       45.0420365
      ],
      [
       39.1005591,
       45.0417692
      ],
      [
       39.099914,
       45.0413409
      ],
      [
       39.0977964,
       45.0408349
      ],
      [
       39.0971258,
       45.0406131
      ],
      [
       39.0965813,
       45.0415968
      ],
      [
       39.0956533,
       45.0421938
      ],
      [
       39.0922616,
       45.041827
      ],
      [
       39.0920149,
       45.041774
      ],
      [
       39.091858,
       45.0417503
      ],
      [
       39.0894222,
       45.0414906
      ],
      [
       39.0886125,
       45.0413532
      ],
      [
       39.0882289,
       45.0411666
      ],
      [
       39.0867376,
       45.0410093
      ]
     ]
    ]
   }
  }
 ]
}
